QIANFAN-57              
1 62787U 25016C   25212.17523785  .00000147  00000+0  20889-3 0  9995
2 62787  88.9856 117.0708 0002174  92.3869 267.7531 13.50955921 29036
QIANFAN-58              
1 62788U 25016D   25211.85021626  .00000151  00000+0  21598-3 0  9990
2 62788  88.9825 116.9777 0015207  20.6040 339.5721 13.50955052 29037
QIANFAN-59              
1 62789U 25016E   25211.86262135  .00000128  00000+0  17980-3 0  9998
2 62789  88.9849 117.0149 0016199  23.1254 337.0622 13.50959360 29034
QIANFAN-60              
1 62790U 25016F   25211.85419034  .00000142  00000+0  20066-3 0  9996
2 62790  88.9830 117.0209 0016601  20.8778 339.3047 13.50967760 29013
QIANFAN-61              
1 62791U 25016G   25211.86674395  .00000133  00000+0  18693-3 0  9994
2 62791  88.9898 117.0857 0015994  19.8990 340.2781 13.50957232 29036
QIANFAN-62              
1 62792U 25016H   25211.87067993  .00000145  00000+0  20543-3 0  9996
2 62792  88.9844 117.0267 0017402  19.6238 340.5579 13.50956212 29026
QIANFAN-63              
1 62793U 25016J   25212.17929412  .00000149  00000+0  21143-3 0  9995
2 62793  88.9850 116.9347 0017311  23.0798 337.1127 13.50953421 29109
QIANFAN-64              
1 62794U 25016K   25211.87476768  .00000105  00000+0  14384-3 0  9994
2 62794  88.9837 116.9642 0015017  19.0310 341.1400 13.50957490 29052
